56P/Slaughter-Burnham,e,8.1603,345.9912,43.9868,5.070041,0.0863350,0.50734953,148.4856,04/04.0/2021,2000,g  8.5,6.0
# From MPC 98565
57P/du Toit-Neujmin-Delporte,e,2.8509,188.7788,115.2574,3.445972,0.1540765,0.50081918,329.7327,04/04.0/2021,2000,g 12.5,6.0
# From MPEC 2020-SI8
58P/Jackson-Neujmin,e,13.1104,159.0761,200.4512,4.081204,0.1195423,0.66248965,37.2441,04/04.0/2021,2000,g 15.5,6.0
# From MPEC 2021-F20
59P/Kearns-Kwee,e,9.3413,312.8346,127.5536,4.487731,0.1036726,0.47504492,96.4754,04/04.0/2021,2000,g  7.0,6.0
# From MPEC 2021-F20
60P/Tsuchinshan,e,3.5928,267.5633,216.9282,3.522192,0.1491024,0.53532299,126.1250,04/04.0/2021,2000,g 11.5,6.0
# From MPEC 2015-Q71
61P/Shajn-Schaldach,e,5.9988,162.9800,221.8479,3.686239,0.1392608,0.42388494,280.8497,04/04.0/2021,2000,g  6.0,10.0
# From MPC109147
62P/Tsuchinshan,e,4.7849,69.8441,46.6771,3.349070,0.1608117,0.63123836,200.4039,04/04.0/2021,2000,g  8.0,10.0
# From MPC 84320
63P/Wild,e,19.7295,358.0186,169.1110,5.606255,0.0742497,0.64883464,216.9604,04/04.0/2021,2000,g 10.5,6.0
# From MPC111774
64P/Swift-Gehrels,e,8.9502,299.9983,97.0734,4.453923,0.1048552,0.68786868,92.4695,04/04.0/2021,2000,g  9.5,12.0
# From MPEC 2021-FB5
65P/Gunn,e,9.1801,62.0202,213.8628,3.885573,0.1286831,0.24953041,162.6830,04/04.0/2021,2000,g  5.0,6.0
# From MPC109147
66P/du Toit,e,18.6515,21.8391,257.3644,6.065883,0.0659725,0.78679166,69.3276,04/04.0/2021,2000,g  9.0,4.0
# From MPC 89011
67P/Churyumov-Gerasimenko,e,3.8709,36.3548,22.1010,3.458590,0.1532341,0.65000041,327.5118,04/04.0/2021,2000,g 11.0,4.0
# From MPC 75716
68P/Klemola,e,11.1101,175.0661,153.1227,4.952735,0.0894204,0.63764471,45.7720,04/04.0/2021,2000,g 10.0,4.0
# From MPC114607
69P/Taylor,e,22.0335,104.8273,343.4591,3.887778,0.1285736,0.41307433,96.1557,04/04.0/2021,2000,g  9.5,12.0
# From MPEC 2021-BE3
70P/Kojima,e,6.5982,119.2685,1.8427,3.676516,0.1398136,0.45357250,330.1975,04/04.0/2021,2000,g 11.0,6.0
# From MPC107051
71P/Clark,e,9.4385,59.4213,209.0444,3.138319,0.1772795,0.49400353,243.4427,04/04.0/2021,2000,g  9.8,6.0
# From MPC 89011
72P/Denning-Fujikawa,e,10.9397,26.6907,346.6844,4.310980,0.1101134,0.81834477,271.5752,04/04.0/2021,2000,g 17.5,10.0
# From MPC106348
73P/Schwassmann-Wachmann,e,11.2299,69.6342,199.4632,3.092954,0.1811941,0.68556138,267.8423,04/04.0/2021,2000,g 11.5,6.0
# From MPC106348
73P-T/Schwassmann-Wachmann,e,11.2320,69.6368,199.4446,3.094516,0.1810568,0.68576405,267.6406,04/04.0/2021,2000,g 11.5,6.0
# From MPEC 2021-BE3
74P/Smirnova-Chernykh,e,6.2906,74.2382,101.5502,4.289639,0.1109361,0.15126768,120.7581,04/04.0/2021,2000,g  5.0,6.0
# From MPEC 2020-SI8
76P/West-Kohoutek-Ikemura,e,30.4586,84.1180,359.9764,3.472915,0.1522870,0.53811298,80.0934,04/04.0/2021,2000,g  8.0,12.0
# From MPC100283
77P/Longmore,e,24.3197,14.7847,196.8444,3.621563,0.1430079,0.35209504,255.6994,04/04.0/2021,2000,g  7.0,8.0
# From MPEC 2021-FB5
78P/Gehrels,e,6.2506,210.5221,192.6437,3.739104,0.1363179,0.46200399,99.8099,04/04.0/2021,2000,g  5.5,8.0
# From MPC 94675
79P/du Toit-Hartley,e,3.1479,280.5308,281.8041,2.942870,0.1952304,0.61885711,182.3751,04/04.0/2021,2000,g 16.0,4.0
# From MPEC 2014-P41
80P/Peters-Hartley,e,29.9331,259.8180,339.2530,4.024320,0.1220858,0.59885954,285.0669,04/04.0/2021,2000,g  9.0,4.0
# From MPC105241
81P/Wild,e,3.2368,136.0986,41.6878,3.451394,0.1537136,0.53704325,264.5780,04/04.0/2021,2000,g  7.0,6.0
# From MPEC 2020-L06
82P/Gehrels,e,1.1286,239.3092,226.7121,4.135611,0.1171911,0.12169072,118.8112,04/04.0/2021,2000,g  5.0,8.0
# From MPEC 2021-FB5
84P/Giclas,e,7.5520,108.1744,281.5712,3.548899,0.1474224,0.51568093,44.8390,04/04.0/2021,2000,g  9.5,8.0
# From MPC109147
86P/Wild,e,15.4740,72.3625,179.3690,3.602759,0.1441290,0.37247553,315.3924,04/04.0/2021,2000,g 11.0,6.0
# From MPEC 2020-SI8
87P/Bus,e,2.6041,181.8163,25.0985,3.442546,0.1543066,0.38984214,50.8207,04/04.0/2021,2000,g  7.2,10.0
# From MPEC 2019-JE2
88P/Howell,e,4.3837,56.6799,235.9014,3.105081,0.1801335,0.56425380,34.1182,04/04.0/2021,2000,g 11.0,6.0
# From MPC100283
89P/Russell,e,12.0694,41.3868,250.3302,3.753958,0.1355095,0.40861872,212.7195,04/04.0/2021,2000,g 11.5,6.0
# From MPC107051
90P/Gehrels,e,9.6457,13.2065,29.0722,6.053132,0.0661811,0.51001999,91.6446,04/04.0/2021,2000,g  8.5,6.0
# From MPC105241
91P/Russell,e,14.0892,247.8242,354.8363,3.892418,0.1283438,0.33093879,18.6727,04/04.0/2021,2000,g  7.5,6.0
# From MPEC 2014-J58
92P/Sanguin,e,19.4932,181.3717,163.7431,5.344556,0.0797695,0.66084836,177.3184,04/04.0/2021,2000,g 12.0,6.0
# From NK 2707
93P/Lovas,e,12.2032,339.6440,74.8192,4.383120,0.1074061,0.61246883,160.5848,04/04.0/2021,2000,g  9.0,4.0
# From MPEC 2020-W26
94P/Russell,e,6.1879,70.8592,92.4684,3.507302,0.1500529,0.36484034,243.3300,04/04.0/2021,2000,g  9.0,6.0
# From MPC 75717
95P/Chiron,e,6.9319,209.2685,339.7355,13.69804,0.0194409,0.37751664,178.9391,04/04.0/2021,2000,g  6.5,2.0
# From MPEC 2017-T14
96P/Machholz,e,57.6365,94.0172,14.7317,3.027975,0.1870578,0.96159917,235.1733,04/04.0/2021,2000,g  9.0,4.0
# From MPC 77020
97P/Metcalf-Brewington,e,17.9421,184.0843,229.8607,4.767333,0.0946871,0.46070927,329.9696,04/04.0/2021,2000,g  5.5,6.0
# From MPEC 2013-H38
98P/Takamizawa,e,10.5610,114.7112,157.9147,3.800342,0.1330363,0.56241675,11.8507,04/04.0/2021,2000,g  9.0,8.0
# From MPEC 2021-FB5
99P/Kowal,e,4.3387,28.1084,174.9611,6.110416,0.0652526,0.22986740,335.6014,04/04.0/2021,2000,g  4.5,6.0
# From MPEC 2013-O31
100P/Hartley,e,25.5658,37.7030,181.9938,3.432221,0.1550034,0.41236892,283.4324,04/04.0/2021,2000,g  9.0,4.0
# From MPEC 2021-FB5
101P/Chernykh,e,5.0528,116.2293,277.7020,5.802451,0.0705159,0.59590088,31.5495,04/04.0/2021,2000,g 10.0,4.8
# From MPC 86232
102P/Shoemaker,e,25.8849,339.3661,20.5407,3.812828,0.1323833,0.45711466,9.4794,04/04.0/2021,2000,g  6.5,8.0
# From MPEC 2018-HA5
103P/Hartley,e,13.5997,219.7302,181.2844,3.476216,0.1520702,0.69317501,219.8016,04/04.0/2021,2000,g  8.5,8.0
# From MPC100283
104P/Kowal,e,5.7181,207.4558,227.0569,3.208472,0.1714971,0.66575500,311.6289,04/04.0/2021,2000,g 16.0,4.0
# From MPC109147
105P/Singer Brewster,e,9.1710,192.4139,46.4849,3.467187,0.1526645,0.40955762,147.8182,04/04.0/2021,2000,g 11.5,6.0
# From MPC 92276
106P/Schuster,e,19.5355,48.8917,353.6527,3.763525,0.1349932,0.59382094,341.5396,04/04.0/2021,2000,g 14.0,4.8
# From MPEC 2015-M77
107P/Wilson-Harrington,e,2.7985,266.7964,95.3994,2.625352,0.2316983,0.63151305,242.3614,04/04.0/2021,2000,g  9.0,4.0
# From MPC 89313
108P/Ciffreo,e,11.4366,50.3001,354.3934,3.739865,0.1362762,0.55604606,338.3247,04/04.0/2021,2000,g  8.0,12.0
# From  105, 420
109P/Swift-Tuttle,e,113.9903,139.0367,152.9035,26.13525,0.0073767,0.96291463,76.3491,04/04.0/2021,2000,g  4.0,6.0
# From MPEC 2020-W26
110P/Hartley,e,11.7073,287.5339,167.4554,3.601074,0.1442301,0.31805931,331.5371,04/04.0/2021,2000,g  1.0,12.0
# From MPC 75718
111P/Helin-Roman-Crockett,e,4.2271,89.7666,1.0138,4.146749,0.1167192,0.10589518,351.5039,04/04.0/2021,2000,g  5.0,8.0
# From MPC118097
112P/Urata-Niijima,e,24.1943,31.8377,21.4882,3.525793,0.1488740,0.58985571,62.6795,04/04.0/2021,2000,g 14.0,6.0
# From MPEC 2015-E14
113P/Spitaler,e,5.2982,306.7154,115.3214,3.701846,0.1383810,0.42154340,301.5125,04/04.0/2021,2000,g 13.5,4.0
# From MPEC 2021-BE3
114P/Wiseman-Skiff,e,18.2728,271.0529,172.7803,3.545628,0.1476265,0.55473183,65.8356,04/04.0/2021,2000,g 11.5,6.0
# From MPEC 2020-SI8
115P/Maury,e,11.6775,176.0098,120.9815,4.272896,0.1115888,0.51866114,27.7147,04/04.0/2021,2000,g 10.5,6.0
# From MPC106348
116P/Wild,e,3.6034,20.9871,173.3491,3.489580,0.1511974,0.37065700,289.0821,04/04.0/2021,2000,g  2.5,10.0
# From MPEC 2021-FB5
117P/Helin-Roman-Alu,e,8.7023,58.8445,222.8315,4.085076,0.1193724,0.25573462,305.1768,04/04.0/2021,2000,g  2.5,8.0
# From MPC 95735
118P/Shoemaker-Levy,e,10.0758,142.1170,314.2197,3.366830,0.1595410,0.45589944,264.8069,04/04.0/2021,2000,g 12.0,4.0
# From MPC 84628
119P/Parker-Hartley,e,7.4118,104.7300,321.5921,3.820930,0.1319625,0.39081842,294.8911,04/04.0/2021,2000,g  3.5,8.0
# From MPEC 2020-SI8
120P/Mueller,e,8.4900,358.6743,36.5541,3.961454,0.1250035,0.37450488,355.8587,04/04.0/2021,2000,g 12.0,4.0
# From MPEC 2020-SI8
121P/Shoemaker-Holt,e,20.1630,94.1301,11.3451,4.585128,0.1003869,0.18552492,278.2651,04/04.0/2021,2000,g  6.5,8.0
# From MPC 75718
122P/de Vico,e,84.8663,79.5471,13.0094,17.62771,0.0133171,0.96225699,124.3276,04/04.0/2021,2000,g  7.5,5.2
# From MPC114608
123P/West-Hartley,e,15.2988,46.2279,103.7568,3.872743,0.1293231,0.44747516,102.0013,04/04.0/2021,2000,g  4.0,10.0
# From MPEC 2020-SI8
124P/Mrkos,e,31.5165,0.3453,183.9361,3.319789,0.1629440,0.50350110,55.7307,04/04.0/2021,2000,g 13.5,2.8
# From MPEC 2015-M77
125P/Spacewatch,e,9.9866,153.1510,87.2388,3.125749,0.1783500,0.51275810,169.5156,04/04.0/2021,2000,g  9.0,4.0
# From MPC 66205
126P/IRAS,e,45.8673,357.8607,356.5192,5.640430,0.0735759,0.69624225,299.4942,04/04.0/2021,2000,g  9.0,4.0
# From MPC 84321
127P/Holt-Olmstead,e,14.2968,13.6384,6.4843,3.450923,0.1537451,0.35987959,284.0334,04/04.0/2021,2000,g 11.0,6.0
# From MPC 89014
128P/Shoemaker-Holt,e,4.3672,214.2965,210.3155,4.492493,0.1035078,0.32066569,159.9964,04/04.0/2021,2000,g  8.5,4.0
# From MPEC 2019-TG9
129P/Shoemaker-Levy,e,3.4424,184.8835,307.8771,4.283045,0.1111924,0.08399582,292.3333,04/04.0/2021,2000,g 11.0,4.0
# From MPC 78188
130P/McNaught-Hughes,e,6.0629,70.2301,246.0003,3.383826,0.1583405,0.46136734,184.8480,04/04.0/2021,2000,g 10.0,6.0
# From MPC102101
131P/Mueller,e,7.3549,214.1602,179.0278,3.680823,0.1395683,0.34386411,111.7552,04/04.0/2021,2000,g 11.0,4.0
# From MPEC 2020-HN5
132P/Helin-Roman-Alu,e,5.3806,174.0121,216.3467,3.888624,0.1285317,0.56504206,331.3204,04/04.0/2021,2000,g 11.0,6.0
# From MPC 94676
133P/Elst-Pizarro,e,1.3892,160.1108,131.8147,3.164561,0.1750789,0.15698888,161.9856,04/04.0/2021,2000,g 15.4,2.0
# From MPC 89012
134P/Kowal-Vavrova,e,4.3405,202.0747,18.8867,6.259874,0.0629297,0.58617795,158.0603,04/04.0/2021,2000,g 11.5,4.0
# From MPEC 2021-F20
